{"type": "FeatureCollection", "features": [ {"type": "Feature", "properties": {"norad_id": 66399, "name": "STARLINK-35657", "group": "last-30-days", "lat": 17.00961789519886, "lon": 98.68763119676247, "alt_km": 439.01742001478306, "timestamp": "2025-12-06T20:37:54.811713+00:00", "meta": {"OBJECT_NAME": "STARLINK-35657", "OBJECT_ID": "2025-257V", "EPOCH": "2025-12-06T14:00:01.999872", "MEAN_MOTION": 15.42918804, "ECCENTRICITY": 8.55e-05, "INCLINATION": 53.159, "RA_OF_ASC_NODE": 293.2545, "ARG_OF_PERICENTER": 109.999, "MEAN_ANOMALY": 313.4601, "EPHEMERIS_TYPE": 0, "CLASSIFICATION_TYPE": "U", "NORAD_CAT_ID": 66399, "ELEMENT_SET_NO": 999, "REV_AT_EPOCH": 550, "BSTAR": -0.050808869, "MEAN_MOTION_DOT": -0.02019289, "MEAN_MOTION_DDOT": 0}, "tle": {"line1": "1 66399U 25257V   25340.58335648 -.02019289  00000+0 -50809-1 0  9995", "line2": "2 66399  53.1590 293.2545 0000855 109.9990 313.4601 15.42918804  5503"}}, "geometry": {"type": "Point", "coordinates": [98.68763119676247, 17.00961789519886]}}, {"type": "Feature", "properties": {"norad_id": 66400, "name": "STARLINK-35667", "group": "last-30-days", "lat": -4.546104424051684, "lon": 115.30825668983661, "alt_km": 419.6986997104568, "timestamp": "2025-12-06T20:37:54.811723+00:00", "meta": {"OBJECT_NAME": "STARLINK-35667", "OBJECT_ID": "2025-257W", "EPOCH": "2025-12-06T04:21:09.466848", "MEAN_MOTION": 15.49356007, "ECCENTRICITY": 0.00018529, "INCLINATION": 53.1592, "RA_OF_ASC_NODE": 295.135, "ARG_OF_PERICENTER": 118.9172, "MEAN_ANOMALY": 241.2023, "EPHEMERIS_TYPE": 0, "CLASSIFICATION_TYPE": "U", "NORAD_CAT_ID": 66400, "ELEMENT_SET_NO": 999, "REV_AT_EPOCH": 536, "BSTAR": -0.00068117353, "MEAN_MOTION_DOT": -0.00038213, "MEAN_MOTION_DDOT": 0}, "tle": {"line1": "1 66400U 25257W   25340.18135957 -.00038213  00000+0 -68117-3 0  9994", "line2": "2 66400  53.1592 295.1350 0001852 118.9172 241.2023 15.49356007  5361"}}, "geometry": {"type": "Point", "coordinates": [115.30825668983661, -4.546104424051684]}}, {"type": "Feature", "properties": {"norad_id": 66401, "name": "STARLINK-35668", "group": "last-30-days", "lat": -5.124182288823045, "lon": 115.74647729689059, "alt_km": 424.70961652610004, "timestamp": "2025-12-06T20:37:54.811734+00:00", "meta": {"OBJECT_NAME": "STARLINK-35668", "OBJECT_ID": "2025-257X", "EPOCH": "2025-12-06T08:00:01.999872", "MEAN_MOTION": 15.49728436, "ECCENTRICITY": 0.00015575, "INCLINATION": 53.1587, "RA_OF_ASC_NODE": 294.4065, "ARG_OF_PERICENTER": 90.2703, "MEAN_ANOMALY": 39.9269, "EPHEMERIS_TYPE": 0, "CLASSIFICATION_TYPE": "U", "NORAD_CAT_ID": 66401, "ELEMENT_SET_NO": 999, "REV_AT_EPOCH": 546, "BSTAR": -0.033578695, "MEAN_MOTION_DOT": -0.01694206, "MEAN_MOTION_DDOT": 0}, "tle": {"line1": "1 66401U 25257X   25340.33335648 -.01694206  00000+0 -33579-1 0  9994", "line2": "2 66401  53.1587 294.4065 0001557  90.2703  39.9269 15.49728436  5469"}}, "geometry": {"type": "Point", "coordinates": [115.74647729689059, -5.124182288823045]}}, {"type": "Feature", "properties": {"norad_id": 66402, "name": "STARLINK-35644", "group": "last-30-days", "lat": -6.19677528899114, "lon": 116.55602725267015, "alt_km": 419.9832661460805, "timestamp": "2025-12-06T20:37:54.811745+00:00", "meta": {"OBJECT_NAME": "STARLINK-35644", "OBJECT_ID": "2025-257Y", "EPOCH": "2025-12-06T05:53:33.843840", "MEAN_MOTION": 15.49361286, "ECCENTRICITY": 7.923e-05, "INCLINATION": 53.1581, "RA_OF_ASC_NODE": 294.8244, "ARG_OF_PERICENTER": 85.5717, "MEAN_ANOMALY": 274.5382, "EPHEMERIS_TYPE": 0, "CLASSIFICATION_TYPE": "U", "NORAD_CAT_ID": 66402, "ELEMENT_SET_NO": 999, "REV_AT_EPOCH": 537, "BSTAR": 0.0018840832, "MEAN_MOTION_DOT": 0.00105964, "MEAN_MOTION_DDOT": 0}, "tle": {"line1": "1 66402U 25257Y   25340.24553060  .00105964  00000+0  18841-2 0  9996", "line2": "2 66402  53.1581 294.8244 0000792  85.5717 274.5382 15.49361286  5378"}}, "geometry": {"type": "Point", "coordinates": [116.55602725267015, -6.19677528899114]}}, {"type": "Feature", "properties": {"norad_id": 66403, "name": "STARLINK-35602", "group": "last-30-days", "lat": -7.910096883269402, "lon": 117.86159873389958, "alt_km": 419.4479001441914, "timestamp": "2025-12-06T20:37:54.811758+00:00", "meta": {"OBJECT_NAME": "STARLINK-35602", "OBJECT_ID": "2025-257Z", "EPOCH": "2025-12-06T04:20:10.783968", "MEAN_MOTION": 15.49424028, "ECCENTRICITY": 0.00014724, "INCLINATION": 53.1591, "RA_OF_ASC_NODE": 295.1307, "ARG_OF_PERICENTER": 117.2823, "MEAN_ANOMALY": 242.8336, "EPHEMERIS_TYPE": 0, "CLASSIFICATION_TYPE": "U", "NORAD_CAT_ID": 66403, "ELEMENT_SET_NO": 999, "REV_AT_EPOCH": 536, "BSTAR": 0.0022222457, "MEAN_MOTION_DOT": 0.0012566, "MEAN_MOTION_DDOT": 0}, "tle": {"line1": "1 66403U 25257Z   25340.18068037  .00125660  00000+0  22222-2 0  9998", "line2": "2 66403  53.1591 295.1307 0001472 117.2823 242.8336 15.49424028  5361"}}, "geometry": {"type": "Point", "coordinates": [117.86159873389958, -7.910096883269402]}}, {"type": "Feature", "properties": {"norad_id": 66404, "name": "STARLINK-35691", "group": "last-30-days", "lat": -9.251433518472691, "lon": 118.89347974704197, "alt_km": 420.0645591928733, "timestamp": "2025-12-06T20:37:54.811768+00:00", "meta": {"OBJECT_NAME": "STARLINK-35691", "OBJECT_ID": "2025-257AA", "EPOCH": "2025-12-06T07:25:27.788160", "MEAN_MOTION": 15.49375939, "ECCENTRICITY": 4.55e-05, "INCLINATION": 53.1594, "RA_OF_ASC_NODE": 294.5115, "ARG_OF_PERICENTER": 127.6305, "MEAN_ANOMALY": 232.4745, "EPHEMERIS_TYPE": 0, "CLASSIFICATION_TYPE": "U", "NORAD_CAT_ID": 66404, "ELEMENT_SET_NO": 999, "REV_AT_EPOCH": 538, "BSTAR": 0.0020746218, "MEAN_MOTION_DOT": 0.00116952, "MEAN_MOTION_DDOT": 0}, "tle": {"line1": "1 66404U 25257AA  25340.30934940  .00116952  00000+0  20746-2 0  9991", "line2": "2 66404  53.1594 294.5115 0000455 127.6305 232.4745 15.49375939  5382"}}, "geometry": {"type": "Point", "coordinates": [118.89347974704197, -9.251433518472691]}}, {"type": "Feature", "properties": {"norad_id": 66405, "name": "STARLINK-35683", "group": "last-30-days", "lat": -10.588708948565811, "lon": 119.9312211057961, "alt_km": 421.06070958044893, "timestamp": "2025-12-06T20:37:54.811781+00:00", "meta": {"OBJECT_NAME": "STARLINK-35683", "OBJECT_ID": "2025-257AB", "EPOCH": "2025-12-06T04:19:12.292032", "MEAN_MOTION": 15.49283742, "ECCENTRICITY": 8.737e-05, "INCLINATION": 53.1588, "RA_OF_ASC_NODE": 295.1251, "ARG_OF_PERICENTER": 49.0539, "MEAN_ANOMALY": 311.0545, "EPHEMERIS_TYPE": 0, "CLASSIFICATION_TYPE": "U", "NORAD_CAT_ID": 66405, "ELEMENT_SET_NO": 999, "REV_AT_EPOCH": 529, "BSTAR": 0.0017587566, "MEAN_MOTION_DOT": 0.00098521, "MEAN_MOTION_DDOT": 0}, "tle": {"line1": "1 66405U 25257AB  25340.18000338  .00098521  00000+0  17588-2 0  9994", "line2": "2 66405  53.1588 295.1251 0000873  49.0539 311.0545 15.49283742  5296"}}, "geometry": {"type": "Point", "coordinates": [119.9312211057961, -10.588708948565811]}}, {"type": "Feature", "properties": {"norad_id": 66406, "name": "STARLINK-34840", "group": "last-30-days", "lat": -15.23829682520164, "lon": 123.6478342847241, "alt_km": 421.2975196377165, "timestamp": "2025-12-06T20:37:54.811792+00:00", "meta": {"OBJECT_NAME": "STARLINK-34840", "OBJECT_ID": "2025-257AC", "EPOCH": "2025-12-06T08:56:22.817184", "MEAN_MOTION": 15.49360559, "ECCENTRICITY": 0.00012408, "INCLINATION": 53.1588, "RA_OF_ASC_NODE": 294.1932, "ARG_OF_PERICENTER": 83.4805, "MEAN_ANOMALY": 276.6345, "EPHEMERIS_TYPE": 0, "CLASSIFICATION_TYPE": "U", "NORAD_CAT_ID": 66406, "ELEMENT_SET_NO": 999, "REV_AT_EPOCH": 533, "BSTAR": 0.001811742, "MEAN_MOTION_DOT": 0.00101821, "MEAN_MOTION_DDOT": 0}, "tle": {"line1": "1 66406U 25257AC  25340.37248631  .00101821  00000+0  18117-2 0  9993", "line2": "2 66406  53.1588 294.1932 0001240  83.4805 276.6345 15.49360559  5330"}}, "geometry": {"type": "Point", "coordinates": [123.6478342847241, -15.23829682520164]}}, {"type": "Feature", "properties": {"norad_id": 66407, "name": "STARLINK-35686", "group": "last-30-days", "lat": -12.302457488315156, "lon": 121.27986548964066, "alt_km": 420.6541575972351, "timestamp": "2025-12-06T20:37:54.811803+00:00", "meta": {"OBJECT_NAME": "STARLINK-35686", "OBJECT_ID": "2025-257AD", "EPOCH": "2025-12-06T04:18:41.752224", "MEAN_MOTION": 15.49345649, "ECCENTRICITY": 0.0001858, "INCLINATION": 53.1589, "RA_OF_ASC_NODE": 295.1224, "ARG_OF_PERICENTER": 99.0415, "MEAN_ANOMALY": 261.0804, "EPHEMERIS_TYPE": 0, "CLASSIFICATION_TYPE": "U", "NORAD_CAT_ID": 66407, "ELEMENT_SET_NO": 999, "REV_AT_EPOCH": 536, "BSTAR": 0.0019143547, "MEAN_MOTION_DOT": 0.00107639, "MEAN_MOTION_DDOT": 0}, "tle": {"line1": "1 66407U 25257AD  25340.17964991  .00107639  00000+0  19144-2 0  9990", "line2": "2 66407  53.1589 295.1224 0001858  99.0415 261.0804 15.49345649  5366"}}, "geometry": {"type": "Point", "coordinates": [121.27986548964066, -12.302457488315156]}}, {"type": "Feature", "properties": {"norad_id": 66408, "name": "STARLINK-35679", "group": "last-30-days", "lat": -13.827632770046003, "lon": 122.50191248509124, "alt_km": 420.7464986051191, "timestamp": "2025-12-06T20:37:54.811815+00:00", "meta": {"OBJECT_NAME": "STARLINK-35679", "OBJECT_ID": "2025-257AE", "EPOCH": "2025-12-06T04:18:12.054816", "MEAN_MOTION": 15.49356651, "ECCENTRICITY": 0.00016029, "INCLINATION": 53.1593, "RA_OF_ASC_NODE": 295.1224, "ARG_OF_PERICENTER": 102.3098, "MEAN_ANOMALY": 257.8091, "EPHEMERIS_TYPE": 0, "CLASSIFICATION_TYPE": "U", "NORAD_CAT_ID": 66408, "ELEMENT_SET_NO": 999, "REV_AT_EPOCH": 536, "BSTAR": 0.0018816254, "MEAN_MOTION_DOT": 0.00105806, "MEAN_MOTION_DDOT": 0}, "tle": {"line1": "1 66408U 25257AE  25340.17930619  .00105806  00000+0  18816-2 0  9990", "line2": "2 66408  53.1593 295.1224 0001602 102.3098 257.8091 15.49356651  5360"}}, "geometry": {"type": "Point", "coordinates": [122.50191248509124, -13.827632770046003]}}]}